{"type":"FeatureCollection","features":[{"type":"Feature","geometry":{"type":"MultiPolygon","coordinates":[[[[113.558577,22.163041],[113.55558,22.164591],[113.550722,22.164591],[113.549172,22.163816],[113.542971,22.163816],[113.541421,22.162318],[113.535943,22.162318],[113.535219,22.160767],[113.532842,22.164591],[113.532119,22.163816],[113.532842,22.158442],[113.535219,22.152137],[113.539043,22.149037],[113.543694,22.144386],[113.546071,22.139632],[113.546071,22.117824],[113.542971,22.115499],[113.542971,22.113948],[113.543694,22.113948],[113.543694,22.109246],[113.543694,22.107696],[113.546795,22.10537],[113.549172,22.10537],[113.551549,22.106145],[113.552273,22.107696],[113.554753,22.108471],[113.55558,22.106145],[113.557027,22.10692],[113.563228,22.10692],[113.566329,22.107696],[113.567879,22.108471],[113.567879,22.11152],[113.566329,22.11152],[113.563951,22.113173],[113.567155,22.117824],[113.569429,22.1217],[113.570979,22.12015],[113.57408,22.119374],[113.578007,22.120925],[113.580281,22.124077],[113.583589,22.123302],[113.585966,22.124077],[113.587516,22.124852],[113.587516,22.127229],[113.586689,22.129555],[113.585966,22.131932],[113.583589,22.129555],[113.583589,22.131105],[113.582038,22.131932],[113.580281,22.129555],[113.574907,22.131932],[113.574907,22.135032],[113.578007,22.138081],[113.578007,22.139632],[113.57253,22.137306],[113.571806,22.140458],[113.569429,22.143611],[113.563228,22.143611],[113.563228,22.150587],[113.567879,22.150587],[113.571806,22.152912],[113.57408,22.156116],[113.57408,22.160767],[113.569429,22.160767],[113.558577,22.163041]]],[[[113.536462,22.217057],[113.53677,22.217663],[113.535943,22.216888],[113.536462,22.217057]]],[[[113.536462,22.217057],[113.535219,22.214614],[113.528915,22.214614],[113.528915,22.213839],[113.525711,22.212289],[113.527365,22.207534],[113.532842,22.209188],[113.532119,22.210738],[113.533669,22.210738],[113.535219,22.207534],[113.528915,22.206759],[113.530568,22.205209],[113.528191,22.195856],[113.523334,22.188052],[113.52106,22.184177],[113.52106,22.182626],[113.52261,22.180249],[113.525711,22.177924],[113.528915,22.178699],[113.532842,22.178699],[113.535943,22.182626],[113.53987,22.182626],[113.542971,22.184177],[113.548449,22.188052],[113.551549,22.189551],[113.551549,22.191101],[113.551549,22.191877],[113.551549,22.194202],[113.550722,22.195856],[113.552273,22.197406],[113.553823,22.195856],[113.553823,22.196631],[113.55558,22.199731],[113.550722,22.198956],[113.549172,22.199731],[113.548449,22.202057],[113.551549,22.204434],[113.55558,22.204434],[113.55558,22.207534],[113.553823,22.211514],[113.550722,22.213839],[113.544521,22.216113],[113.544521,22.217663],[113.541421,22.217663],[113.53832,22.217663],[113.536462,22.217057]]]]},"properties":{"COUNTRY":"Macao S.A.R","SOV":"China","FEATURECLA":"Admin-0 map-subunits"}}]}